EUTELSAT QUANTUM        
1 49056U 21069B   26005.11094825  .00000126  00000+0  00000+0 0  9992
2 49056   0.0112   1.2781 0003777 288.6395 262.4180  1.00270992 16295
EUTELSAT KONNECT VHTS   
1 53765U 22110A   26004.17872420  .00000018  00000+0  00000+0 0  9992
2 53765   0.0588  96.2525 0002645 166.2743 268.3016  1.00270061  5192
EUTELSAT HOTBIRD 13F    
1 54048U 22134A   26004.60470638  .00000087  00000+0  00000+0 0  9992
2 54048   0.0570 287.8356 0002232  66.4097 340.6321  1.00271114 11733
EUTELSAT HOTBIRD 13G    
1 54225U 22146A   26004.24807073  .00000000  00000+0  00000+0 0  9994
2 54225   0.0192 255.9655 0001764 292.3577  17.8374  1.00272031  5823
EUTELSAT 10B            
1 54259U 22157A   26005.10340819  .00000067  00000+0  00000+0 0  9992
2 54259   0.0591  94.3200 0000649  94.9555 322.6143  1.00268782 11395
EUTELSAT 36D            
1 59346U 24059A   26005.10860823  .00000000  00000+0  00000+0 0  9996
2 59346   0.0218  46.6080 0000510 272.7769 220.3079  1.00270527  6519
